     2              NAVIGATION DATA                         RINEX VERSION / TYPE
CCRINEXN V1.6.0 UX  CDDIS               27-DEC-05 02:51     PGM / RUN BY / DATE 
IGS BROADCAST EPHEMERIS FILE                                COMMENT             
    0.1211E-07 -0.7451E-08 -0.5960E-07  0.1192E-06          ION ALPHA           
    0.1167E+06 -0.2458E+06 -0.6554E+05  0.1114E+07          ION BETA            
   -0.838190317154E-08-0.266453525910E-13   233472     1355 DELTA-UTC: A0,A1,T,W
    13                                                      LEAP SECONDS        
                                                            END OF HEADER       
 3 05 12 26  9 59 44.0 0.615646131337E-04 0.306954461848E-11 0.000000000000E+00
    0.174000000000E+03 0.155937500000E+02 0.508806908136E-08-0.152050837738E+01
    0.795349478722E-06 0.775960180908E-02 0.102240592241E-04 0.515366215706E+04
    0.122384000000E+06 0.128522515297E-06 0.192875394364E+01-0.158324837685E-06
    0.926155955576E+00 0.163750000000E+03 0.652705207449E+00-0.816284001505E-08
   -0.400730977768E-09 0.100000000000E+01 0.135500000000E+04 0.000000000000E+00
    0.000000000000E+00 0.000000000000E+00-0.419095158577E-08 0.174000000000E+03
    0.116850000000E+06 0.000000000000E+00 0.000000000000E+00 0.000000000000E+00
 7 05 12 26  9 59 44.0 0.454546418041E-03 0.106865627458E-10 0.000000000000E+00
    0.180000000000E+02 0.236562500000E+02 0.494413451448E-08-0.152203742375E+01
    0.129267573357E-05 0.132396300323E-01 0.951252877712E-05 0.515381588173E+04
    0.122384000000E+06 0.206753611565E-06 0.195943097734E+01 0.355765223503E-06
    0.935224872944E+00 0.184500000000E+03-0.176749412407E+01-0.814141055100E-08
   -0.444304221340E-09 0.100000000000E+01 0.135500000000E+04 0.000000000000E+00
    0.240000000000E+01 0.000000000000E+00-0.186264514923E-08 0.180000000000E+02
    0.115428000000E+06 0.000000000000E+00 0.000000000000E+00 0.000000000000E+00
15 05 12 26  9 59 44.0 0.540127046406E-03 0.579802872380E-11 0.000000000000E+00
    0.125000000000E+03 0.105593750000E+03 0.451804533758E-08 0.284197043561E+01
    0.545755028725E-05 0.924636982381E-02 0.545941293240E-05 0.515372702789E+04
    0.122384000000E+06-0.167638063431E-07 0.313910982852E+01 0.102445483208E-06
    0.959114766980E+00 0.272156250000E+03 0.253549258707E+01-0.809926593836E-08
    0.134291308058E-09 0.100000000000E+01 0.135500000000E+04 0.000000000000E+00
    0.000000000000E+00 0.000000000000E+00-0.232830643654E-08 0.125000000000E+03
    0.115200000000E+06 0.000000000000E+00 0.000000000000E+00 0.000000000000E+00
16 05 12 26  9 59 44.0 0.192401930690E-04 0.147792889038E-11 0.000000000000E+00
    0.157000000000E+03-0.223750000000E+02 0.482198656938E-08 0.129005619728E+01
   -0.130757689476E-05 0.296993332449E-02 0.650808215141E-05 0.515361941719E+04
    0.122384000000E+06 0.763684511185E-07 0.976371282812E+00-0.521540641785E-07
    0.961642342709E+00 0.250468750000E+03-0.948426794286E+00-0.810712340852E-08
   -0.269296931584E-09 0.100000000000E+01 0.135500000000E+04 0.000000000000E+00
    0.200000000000E+01 0.000000000000E+00-0.977888703346E-08 0.157000000000E+03
    0.118698000000E+06 0.400000000000E+01 0.000000000000E+00 0.000000000000E+00
17 05 12 26  9 59 44.0 0.101500190794E-04 0.109139364213E-10 0.000000000000E+00
    0.810000000000E+02 0.251875000000E+02 0.440696928225E-08 0.473418873899E+00
    0.116415321827E-05 0.173179258127E-02 0.987015664577E-05 0.515364071083E+04
    0.122384000000E+06 0.633299350739E-07 0.201546451703E+01 0.167638063431E-07
    0.960180929973E+00 0.191437500000E+03 0.267891344313E+01-0.792711591048E-08
   -0.398945189097E-09 0.100000000000E+01 0.135500000000E+04 0.000000000000E+00
    0.240000000000E+01 0.000000000000E+00-0.977888703346E-08 0.810000000000E+02
    0.117576000000E+06 0.000000000000E+00 0.000000000000E+00 0.000000000000E+00
18 05 12 26  9 59 44.0-0.210915226489E-03-0.238742359215E-11 0.000000000000E+00
    0.151000000000E+03-0.331562500000E+02 0.472412535021E-08 0.118181406204E+01
   -0.183098018169E-05 0.669003138319E-02 0.329874455929E-05 0.515365068817E+04
    0.122384000000E+06-0.502914190292E-07-0.212800358352E+01 0.109896063805E-06
    0.959555579307E+00 0.314406250000E+03-0.269256617585E+01-0.846678124685E-08
   -0.161435295857E-09 0.100000000000E+01 0.135500000000E+04 0.000000000000E+00
    0.000000000000E+00 0.000000000000E+00-0.102445483208E-07 0.151000000000E+03
    0.120810000000E+06 0.000000000000E+00 0.000000000000E+00 0.000000000000E+00
25 05 12 26  9 59 44.0-0.461004674435E-07 0.102318153950E-11 0.000000000000E+00
    0.830000000000E+02-0.184375000000E+02 0.481341478376E-08 0.309970425606E+01
   -0.741332769394E-06 0.123511876445E-01 0.847317278385E-05 0.515366450501E+04
    0.122384000000E+06 0.307336449623E-06-0.168828180897E+00 0.745058059692E-07
    0.952216243652E+00 0.207781250000E+03-0.140984667951E+01-0.793211611876E-08
    0.413588656199E-09 0.100000000000E+01 0.135500000000E+04 0.000000000000E+00
    0.280000000000E+01 0.630000000000E+02-0.745058059692E-08 0.339000000000E+03
    0.115218000000E+06 0.400000000000E+01 0.000000000000E+00 0.000000000000E+00
28 05 12 26  9 59 44.0 0.362843275070E-04-0.682121026330E-12 0.000000000000E+00
    0.400000000000E+01-0.193437500000E+02 0.494270588354E-08 0.354883219888E+00
   -0.853091478348E-06 0.107267685235E-01 0.645965337753E-05 0.515365229225E+04
    0.122384000000E+06-0.540167093277E-07 0.986176419555E+00 0.968575477600E-07
    0.959676504116E+00 0.253906250000E+03-0.230568230031E+01-0.837534886690E-08
   -0.300726812193E-09 0.100000000000E+01 0.135500000000E+04 0.000000000000E+00
    0.240000000000E+01 0.000000000000E+00-0.102445483208E-07 0.400000000000E+01
    0.115218000000E+06 0.000000000000E+00 0.000000000000E+00 0.000000000000E+00
 2 05 12 26 10  0  0.0-0.237072817981E-04 0.909494701773E-12 0.000000000000E+00
    0.410000000000E+02 0.919687500000E+02 0.458840541122E-08-0.636962144739E+00
    0.490061938763E-05 0.906034791842E-02 0.604800879955E-05 0.515363387680E+04
    0.122400000000E+06-0.180676579475E-06 0.306299961951E+01 0.540167093277E-07
    0.952452194783E+00 0.261625000000E+03 0.195299233109E+01-0.827427322812E-08
    0.217509060125E-09 0.100000000000E+01 0.135500000000E+04 0.000000000000E+00
    0.240000000000E+01 0.000000000000E+00-0.172294676304E-07 0.297000000000E+03
    0.115218000000E+06 0.000000000000E+00 0.000000000000E+00 0.000000000000E+00
 4 05 12 26 10  0  0.0 0.976994633675E-04 0.125055521494E-10 0.000000000000E+00
    0.131000000000E+03 0.963750000000E+02 0.455876131928E-08 0.173154640133E+01
    0.516511499882E-05 0.740399828646E-02 0.632740557194E-05 0.515376170731E+04
    0.122400000000E+06-0.447034835815E-07 0.308279215503E+01 0.875443220139E-07
    0.952039068180E+00 0.253937500000E+03 0.108347537018E+00-0.818962684512E-08
    0.196436753808E-10 0.100000000000E+01 0.135500000000E+04 0.000000000000E+00
    0.240000000000E+01 0.000000000000E+00-0.605359673500E-08 0.131000000000E+03
    0.115218000000E+06 0.000000000000E+00 0.000000000000E+00 0.000000000000E+00
 5 05 12 26 10  0  0.0 0.435330905020E-03 0.271711542155E-10 0.000000000000E+00
    0.139000000000E+03-0.183750000000E+02 0.540593946479E-08 0.138319174742E+01
   -0.105053186417E-05 0.679958402179E-02 0.656768679619E-05 0.515368008995E+04
    0.122400000000E+06-0.173225998878E-06 0.889196632300E+00 0.353902578354E-07
    0.937184814515E+00 0.241343750000E+03 0.103886305576E+01-0.845892377670E-08
   -0.200008331150E-09 0.100000000000E+01 0.135500000000E+04 0.000000000000E+00
    0.240000000000E+01 0.000000000000E+00-0.419095158577E-08 0.907000000000E+03
    0.117378000000E+06 0.000000000000E+00 0.000000000000E+00 0.000000000000E+00
 6 05 12 26 10  0  0.0 0.149068422615E-03 0.458157956018E-10 0.000000000000E+00
    0.108000000000E+03 0.388125000000E+02 0.490056127090E-08 0.265915772194E+01
    0.187568366528E-05 0.598646071740E-02 0.102538615465E-04 0.515364132118E+04
    0.122400000000E+06 0.782310962677E-07 0.198616139015E+01-0.391155481338E-07
    0.933700213870E+00 0.164125000000E+03-0.186070300884E+01-0.802104839458E-08
   -0.382873091058E-09 0.000000000000E+00 0.135500000000E+04 0.000000000000E+00
    0.200000000000E+01 0.000000000000E+00-0.465661287308E-08 0.108000000000E+03
    0.119280000000E+06 0.400000000000E+01 0.000000000000E+00 0.000000000000E+00
 7 05 12 26 10  0  0.0 0.454545486718E-03 0.106865627458E-10 0.000000000000E+00
    0.233000000000E+03 0.236562500000E+02 0.494413451448E-08-0.151970365394E+01
    0.129267573357E-05 0.132396260742E-01 0.951252877712E-05 0.515381587982E+04
    0.122400000000E+06 0.206753611565E-06 0.195943086031E+01 0.355765223503E-06
    0.935224865630E+00 0.184500000000E+03-0.176749434058E+01-0.814141055100E-08
   -0.444304221340E-09 0.100000000000E+01 0.135500000000E+04 0.000000000000E+00
    0.340000000000E+01 0.000000000000E+00-0.186264514923E-08 0.745000000000E+03
    0.115218000000E+06 0.000000000000E+00 0.000000000000E+00 0.000000000000E+00
 8 05 12 26 10  0  0.0-0.512767583132E-04-0.125055521494E-11 0.000000000000E+00
    0.900000000000E+01-0.606250000000E+01 0.447840082908E-08 0.271814018556E+01
   -0.145286321640E-06 0.960279896390E-02 0.836513936520E-05 0.515367835808E+04
    0.122400000000E+06-0.558793544769E-07-0.380614360173E-01 0.264495611191E-06
    0.971469976207E+00 0.225687500000E+03 0.261797179573E+01-0.786997067301E-08
    0.391802034413E-09 0.100000000000E+01 0.135500000000E+04 0.000000000000E+00
    0.400000000000E+01 0.000000000000E+00-0.372529029846E-08 0.265000000000E+03
    0.122399000000E+06 0.000000000000E+00 0.000000000000E+00 0.000000000000E+00
